[{"OBJECT_NAME":"YUNHAI-1 04","OBJECT_ID":"2023-159A","EPOCH":"2026-03-09T23:32:58.106976","MEAN_MOTION":14.32660643,"ECCENTRICITY":0.00021766,"INCLINATION":98.5096,"RA_OF_ASC_NODE":96.5782,"ARG_OF_PERICENTER":112.1327,"MEAN_ANOMALY":248.0088,"EPHEMERIS_TYPE":0,"CLASSIFICATION_TYPE":"U","NORAD_CAT_ID":58073,"ELEMENT_SET_NO":999,"REV_AT_EPOCH":12559,"BSTAR":0.0001354342,"MEAN_MOTION_DOT":3.25e-6,"MEAN_MOTION_DDOT":0},{"OBJECT_NAME":"CZ-6A DEB","OBJECT_ID":"2024-140UZ","EPOCH":"2026-03-09T13:58:50.940192","MEAN_MOTION":14.09572572,"ECCENTRICITY":0.0106955,"INCLINATION":88.8521,"RA_OF_ASC_NODE":277.5576,"ARG_OF_PERICENTER":188.9752,"MEAN_ANOMALY":170.9524,"EPHEMERIS_TYPE":0,"CLASSIFICATION_TYPE":"U","NORAD_CAT_ID":61336,"ELEMENT_SET_NO":999,"REV_AT_EPOCH":7769,"BSTAR":0.0018444,"MEAN_MOTION_DOT":3.416e-5,"MEAN_MOTION_DDOT":0}]
